*******************************************************************************
JPL/HORIZONS                 23 Thalia (A852 XA)           2020-Jun-20 07:53:53
Rec #:      23 (+COV) Soln.date: 2020-May-20_00:56:00   # obs: 2314 (1856-2020)
 
IAU76/J2000 helio. ecliptic osc. elements (au, days, deg., period=Julian yrs):
 
  EPOCH=  2452335.5 ! 2002-Mar-02.00 (TDB)         Residual RMS= .29765
   EC= .2339835182237959   QR= 2.012432017053515   TP= 2452480.4312818083
   OM= 67.26633941421767   W=  59.32203912674507   IN= 10.14886292926506
   A= 2.627139317403693    MA= 326.453937558175    ADIST= 3.241846617753871
   PER= 4.25827            N= .231461842           ANGMOM= .027107953
   DAN= 2.21846            DDN= 2.81996            L= 126.1903916
   B= 8.7165274            MOID= 1.04955995        TP= 2002-Jul-24.9312818083
 
Asteroid physical parameters (km, seconds, rotational period in hours):
   GM= n.a.                RAD= 53.765             ROTPER= 12.312
   H= 6.95                 G= .150                 B-V= .859
                           ALBEDO= .2536           STYP= S
 
ASTEROID comments: 
1: soln ref.= JPL#93, OCC=0
2: source=ORB
*******************************************************************************
 
 
*******************************************************************************
Ephemeris / WWW_USER Sat Jun 20 07:53:53 2020 Pasadena, USA      / Horizons
*******************************************************************************
Target body name: 23 Thalia (A852 XA)             {source: JPL#93}
Center body name: Solar System Barycenter (0)     {source: DE431}
Center-site name: BODY CENTER
*******************************************************************************
Start time      : A.D. 1969-Jun-28 00:00:00.0000 TDB
Stop  time      : A.D. 2071-May-04 00:00:00.0000 TDB
Step-size       : 7200 minutes
*******************************************************************************
Center geodetic : 0.00000000,0.00000000,0.0000000 {E-lon(deg),Lat(deg),Alt(km)}
Center cylindric: 0.00000000,0.00000000,0.0000000 {E-lon(deg),Dxy(km),Dz(km)}
Center radii    : (undefined)                                                  
Small perturbers: Yes                             {source: SB431-N16}
Output units    : AU-D
Output type     : GEOMETRIC cartesian states
Output format   : 2 (position and velocity)
Reference frame : Ecliptic of J2000.0
*******************************************************************************
Initial IAU76/J2000 heliocentric ecliptic osculating elements (au, days, deg.):
  EPOCH=  2452335.5 ! 2002-Mar-02.00 (TDB)         Residual RMS= .29765        
   EC= .2339835182237959   QR= 2.012432017053515   TP= 2452480.4312818083      
   OM= 67.26633941421767   W=  59.32203912674507   IN= 10.14886292926506       
  Equivalent ICRF heliocentric equatorial cartesian coordinates (au, au/d):
   X= 6.066435302006394E-01  Y= 1.898126233721479E+00  Z= 8.712091004762936E-01
  VX=-1.236363576668541E-02 VY= 4.614081807149655E-04 VZ= 2.532753921196519E-03
Asteroid physical parameters (km, seconds, rotational period in hours):        
   GM= n.a.                RAD= 53.765             ROTPER= 12.312              
   H= 6.95                 G= .150                 B-V= .859                   
                           ALBEDO= .2536           STYP= S                     
*******************************************************************************
            JDTDB,            Calendar Date (TDB),        delta-T,                      X,                      Y,                      Z,                     VX,                     VY,                     VZ,
******************************************************************************************************************************************************************************************************************
$$SOE
2449780.500000000, A.D. 1995-Mar-04 00:00:00.0000,      61.185440, -1.113285200099813E+00, -2.578900354140315E+00,  5.125916933047845E-03,  7.854571297282079E-03, -5.750471320635876E-03, -1.696057100910171E-03,
2449785.500000000, A.D. 1995-Mar-09 00:00:00.0000,      61.185509, -1.073831152720605E+00, -2.607224500411405E+00, -3.354731710267306E-03,  7.926475290424305E-03, -5.579205050445538E-03, -1.696108928754009E-03,
2449790.500000000, A.D. 1995-Mar-14 00:00:00.0000,      61.185565, -1.034026123302489E+00, -2.634692623841461E+00, -1.183424872711392E-02,  7.994973593147900E-03, -5.408070214956271E-03, -1.695606570131773E-03,
2449795.500000000, A.D. 1995-Mar-19 00:00:00.0000,      61.185608, -9.938869987588892E-01, -2.661305500009893E+00, -2.030989473171515E-02,  8.060122686558572E-03, -5.237113769180746E-03, -1.694562593604587E-03,
2449800.500000000, A.D. 1995-Mar-24 00:00:00.0000,      61.185640, -9.534303856415642E-01, -2.687064133251902E+00, -2.877899243173136E-02,  8.121978228694125E-03, -5.066380278509119E-03, -1.692989268311103E-03,
2449805.500000000, A.D. 1995-Mar-29 00:00:00.0000,      61.185662, -9.126726143348272E-01, -2.711969744979037E+00, -3.723892513644476E-02,  8.180595023743643E-03, -4.895912025652622E-03, -1.690898566168374E-03,
2449810.500000000, A.D. 1995-Apr-03 00:00:00.0000,      61.185671, -8.716297433926135E-01, -2.736023762526638E+00, -4.568713527712202E-02,  8.236026995589204E-03, -4.725749114460341E-03, -1.688302164531827E-03,
2449815.500000000, A.D. 1995-Apr-08 00:00:00.0000,      61.185668, -8.303175639981769E-01, -2.759227808512484E+00, -5.412112294171358E-02,  8.288327165135346E-03, -4.555929570559071E-03, -1.685211449262287E-03,
2449820.500000000, A.D. 1995-Apr-13 00:00:00.0000,      61.185650, -7.887516045285341E-01, -2.781583690690427E+00, -6.253844442580810E-02,  8.337547631023817E-03, -4.386489438691880E-03, -1.681637518152072E-03,
2449825.500000000, A.D. 1995-Apr-18 00:00:00.0000,      61.185620, -7.469471352074958E-01, -2.803093392282196E+00, -7.093671080151287E-02,  8.383739553441636E-03, -4.217462876627678E-03, -1.677591184663809E-03,
2449830.500000000, A.D. 1995-Apr-23 00:00:00.0000,      61.185579, -7.049191728323904E-01, -2.823759062769938E+00, -7.931358650572268E-02,  8.426953140807446E-03, -4.048882245521842E-03, -1.673082981937507E-03,
2449835.500000000, A.D. 1995-Apr-28 00:00:00.0000,      61.185528, -6.626824855604488E-01, -2.843583009131433E+00, -8.766678794900903E-02,  8.467237639206288E-03, -3.880778196612155E-03, -1.668123167028256E-03,
2449840.500000000, A.D. 1995-May-03 00:00:00.0000,      61.185467, -6.202515977412645E-01, -2.862567687499634E+00, -9.599408214622561E-02,  8.504641324515932E-03, -3.713179754290150E-03, -1.662721725350201E-03,
2449845.500000000, A.D. 1995-May-08 00:00:00.0000,      61.185394, -5.776407947821733E-01, -2.880715695229192E+00, -1.042932853698030E-01,  8.539211497064589E-03, -3.546114395886163E-03, -1.656888375305886E-03,
2449850.500000000, A.D. 1995-May-13 00:00:00.0000,      61.185309, -5.348641280347228E-01, -2.898029763354383E+00, -1.125622618265889E-01,  8.570994478477948E-03, -3.379608128480275E-03, -1.650632573066170E-03,
2449855.500000000, A.D. 1995-May-18 00:00:00.0000,      61.185215, -4.919354196921052E-01, -2.914512749423758E+00, -1.207989223588782E-01,  8.600035610406599E-03, -3.213685562759531E-03, -1.643963517461993E-03,
2449860.500000000, A.D. 1995-May-23 00:00:00.0000,      61.185112, -4.488682676886425E-01, -2.930167630696536E+00, -1.290012231701184E-01,  8.626379254952798E-03, -3.048369983861979E-03, -1.636890154958914E-03,
2449865.500000000, A.D. 1995-May-28 00:00:00.0000,      61.185004, -4.056760505931860E-01, -2.944997497685726E+00, -1.371671645756510E-01,  8.650068796656507E-03, -2.883683419224917E-03, -1.629421184690415E-03,
2449870.500000000, A.D. 1995-Jun-02 00:00:00.0000,      61.184888, -3.623719324889670E-01, -2.959005548033099E+00, -1.452947897787071E-01,  8.671146645906029E-03, -2.719646703494898E-03, -1.621565063526180E-03,
2449875.500000000, A.D. 1995-Jun-07 00:00:00.0000,      61.184766, -3.189688678330829E-01, -2.972195080701515E+00, -1.533821836717922E-01,  8.689654243659436E-03, -2.556279540561789E-03, -1.613330011152802E-03,
2449880.500000000, A.D. 1995-Jun-12 00:00:00.0000,      61.184636, -2.754796062892583E-01, -2.984569490470360E+00, -1.614274716634625E-01,  8.705632067400037E-03, -2.393600562790986E-03, -1.604724015147783E-03,
2449885.500000000, A.D. 1995-Jun-17 00:00:00.0000,      61.184501, -2.319166975278325E-01, -2.996132262720424E+00, -1.694288185304278E-01,  8.719119638285427E-03, -2.231627387598458E-03, -1.595754836036430E-03,
2449890.500000000, A.D. 1995-Jun-22 00:00:00.0000,      61.184364, -1.882924959871666E-01, -3.006886968495400E+00, -1.773844272948802E-01,  8.730155529417449E-03, -2.070376671547778E-03, -1.586430012323175E-03,
2449895.500000000, A.D. 1995-Jun-27 00:00:00.0000,      61.184226, -1.446191655911004E-01, -3.016837259828146E+00, -1.852925381269160E-01,  8.738777375127210E-03, -1.909864162210781E-03, -1.576756865495909E-03,
2449900.500000000, A.D. 1995-Jul-02 00:00:00.0000,      61.184086, -1.009086844177604E-01, -3.025986865321052E+00, -1.931514272718952E-01,  8.745021881122758E-03, -1.750104747963109E-03, -1.566742504999002E-03,
2449905.500000000, A.D. 1995-Jul-07 00:00:00.0000,      61.183944, -5.717284931581854E-02, -3.034339585970513E+00, -2.009594060025914E-01,  8.748924835336862E-03, -1.591112505854060E-03, -1.556393833173548E-03,
2449910.500000000, A.D. 1995-Jul-12 00:00:00.0000,      61.183802, -1.342328046505547E-02, -3.041899291226122E+00, -2.087148195959516E-01,  8.750521119333799E-03, -1.432900747635209E-03, -1.545717550163206E-03,
2449915.500000000, A.D. 1995-Jul-17 00:00:00.0000,      61.183660,  3.032857412123273E-02, -3.048669915275531E+00, -2.164160463343003E-01,  8.749844720144626E-03, -1.275482064003137E-03, -1.534720158782371E-03,
